      2.10          N: GNSS NAV DATA                        RINEX VERSION / TYPE
fic2rin                                 10/11/2022 00:17:43 PGM / RUN BY / DATE
                                                            END OF HEADER
10 22 10 10  4  0  0.0 -.685965642333D-05 -.170530256582D-11  .000000000000D+00
     .730000000000D+02  .578750000000D+02  .445232831449D-08 -.304803795986D+01
     .293180346489D-05  .799980061129D-02  .533647835255D-05  .515367605972D+04
     .100800000000D+06  .186264514923D-07  .114685906820D+01 -.614672899246D-07
     .975116808615D+00  .284156250000D+03 -.251026766910D+01 -.801997692137D-08
     .436446751188D-09  .100000000000D+01  .223100000000D+04  .000000000000D+00
     .340000000000D+01  .000000000000D+00  .232830643654D-08  .730000000000D+02
     .936000000000D+05  .400000000000D+01
8  22 10 10  4  0  0.0 -.881706364453D-04 -.170530256582D-11  .000000000000D+00
     .870000000000D+02 -.100343750000D+03  .492234789269D-08  .120183136469D+01
    -.501796603203D-05  .759707752150D-02  .505708158016D-05  .515359884834D+04
     .100800000000D+06  .763684511185D-07 -.967751143360D+00  .100582838058D-06
     .961664842389D+00  .280312500000D+03  .163103113899D+00 -.851214027910D-08
    -.613239829615D-09  .100000000000D+01  .223100000000D+04  .000000000000D+00
     .240000000000D+01  .000000000000D+00  .512227416039D-08  .870000000000D+02
     .936000000000D+05  .400000000000D+01
4  22 10 10  4  0  0.0 -.105998944491D-03  .602540239925D-11  .000000000000D+00
     .490000000000D+02 -.702187500000D+02  .464340770228D-08  .856775200446D+00
    -.358559191227D-05  .207220122684D-02  .707805156708D-05  .515374362946D+04
     .100800000000D+06  .577419996262D-07  .223148622597D+01  .987201929092D-07
     .961784462275D+00  .242093750000D+03 -.310871784294D+01 -.821284209784D-08
    -.555737434409D-09  .100000000000D+01  .223100000000D+04  .000000000000D+00
     .240000000000D+01  .000000000000D+00 -.465661287308D-08  .817000000000D+03
     .936000000000D+05  .400000000000D+01
9  22 10 10  4  0  0.0 -.285263173282D-03  .511590769747D-11  .000000000000D+00
     .800000000000D+02 -.702812500000D+02  .483341561688D-08  .160201680970D+01
    -.368617475033D-05  .256884843111D-02  .640936195850D-05  .515374107933D+04
     .100800000000D+06  .109896063805D-06  .217662504835D+01 -.186264514923D-07
     .954867605657D+00  .251062500000D+03  .191381806060D+01 -.834320467082D-08
    -.512521348571D-09  .100000000000D+01  .223100000000D+04  .000000000000D+00
     .240000000000D+01  .000000000000D+00  .139698386192D-08  .800000000000D+02
     .936000000000D+05  .400000000000D+01
13 22 10 10  4  0  0.0  .403213780373D-03  .704858393874D-11  .000000000000D+00
     .570000000000D+02 -.681875000000D+02  .441518391013D-08  .710003444208D+00
    -.356510281563D-05  .655100855511D-02  .790879130363D-05  .515367511368D+04
     .100800000000D+06 -.130385160446D-06  .233326846753D+01 -.558793544769D-08
     .969126934427D+00  .232937500000D+03  .944421555726D+00 -.812891003030D-08
    -.594310469702D-09  .100000000000D+01  .223100000000D+04  .000000000000D+00
     .240000000000D+01  .000000000000D+00 -.111758708954D-07  .570000000000D+02
     .936000000000D+05  .400000000000D+01
11 22 10 10  4  0  0.0 -.241738744080D-04 -.420641299570D-11  .000000000000D+00
     .164000000000D+03 -.114062500000D+02  .424874840600D-08  .808642439501D+00
    -.558793544769D-06  .768529251218D-03  .127144157887D-04  .515365136909D+04
     .100800000000D+06  .372529029846D-07  .155431060933D+00  .000000000000D+00
     .964319706621D+00  .136968750000D+03 -.305797412433D+01 -.783425489959D-08
     .101075638777D-09  .100000000000D+01  .223100000000D+04  .000000000000D+00
     .240000000000D+01  .000000000000D+00 -.838190317154D-08  .164000000000D+03
     .936000000000D+05  .400000000000D+01
14 22 10 10  4  0  0.0 -.965488143265D-04  .363797880709D-11  .000000000000D+00
     .770000000000D+02  .799687500000D+02  .516985820249D-08 -.244465216667D+01
     .414252281189D-05  .234249769710D-02  .364705920219D-05  .515365553856D+04
     .100800000000D+06 -.707805156708D-07 -.195640567738D+01 -.800937414169D-07
     .950871728310D+00  .306906250000D+03 -.303412138109D+01 -.860535844772D-08
     .432160858377D-09  .100000000000D+01  .223100000000D+04  .000000000000D+00
     .240000000000D+01  .000000000000D+00 -.791624188423D-08  .333000000000D+03
     .936000000000D+05  .400000000000D+01
32 22 10 10  4  0  0.0 -.258627813309D-03 -.118234311230D-10  .000000000000D+00
     .400000000000D+01 -.661250000000D+02  .470198157069D-08  .191597203778D+01
    -.341236591339D-05  .613413227256D-02  .680051743984D-05  .515365320015D+04
     .100800000000D+06 -.169500708580D-06  .218882595629D+01 -.670552253723D-07
     .958617674731D+00  .245187500000D+03 -.229707238373D+01 -.825248660633D-08
    -.497163566001D-09  .100000000000D+01  .223100000000D+04  .000000000000D+00
     .240000000000D+01  .000000000000D+00  .465661287308D-09  .400000000000D+01
     .936000000000D+05  .400000000000D+01
21 22 10 10  4  0  0.0  .158261042088D-03 -.568434188608D-12  .000000000000D+00
     .220000000000D+02 -.419062500000D+02  .427696386700D-08  .120090368152D+01
    -.249594449997D-05  .243651845958D-01  .131335109472D-04  .515369993782D+04
     .100800000000D+06  .536441802979D-06  .199449291635D-01 -.264495611191D-06
     .961283799043D+00  .119968750000D+03 -.884634226761D+00 -.783139763772D-08
    -.767889128522D-10  .100000000000D+01  .223100000000D+04  .000000000000D+00
     .240000000000D+01  .000000000000D+00 -.102445483208D-07  .220000000000D+02
     .936000000000D+05  .400000000000D+01
19 22 10 10  4  0  0.0  .221778173000D-03  .500222085975D-11  .000000000000D+00
     .210000000000D+02 -.109750000000D+03  .434625246743D-08 -.294212725669D+01
    -.552274286747D-05  .906892563216D-02  .642426311970D-05  .515372649765D+04
     .100800000000D+06  .279396772385D-07 -.837543076654D+00  .130385160446D-06
     .976064533760D+00  .262437500000D+03  .219272046512D+01 -.798711840983D-08
    -.481448625696D-09  .100000000000D+01  .223100000000D+04  .000000000000D+00
     .240000000000D+01  .000000000000D+00 -.153668224812D-07  .210000000000D+02
     .936000000000D+05  .400000000000D+01
25 22 10 10  4  0  0.0  .380802433938D-03  .397903932026D-11  .000000000000D+00
     .160000000000D+02  .815937500000D+02  .502663795108D-08 -.256304901316D+01
     .410154461861D-05  .106070579495D-01  .341609120369D-05  .515360502243D+04
     .100800000000D+06  .176951289177D-06 -.200098120526D+01 -.670552253723D-07
     .955086145137D+00  .310562500000D+03  .100461266471D+01 -.839713548868D-08
     .495377777330D-09  .100000000000D+01  .223100000000D+04  .000000000000D+00
     .240000000000D+01  .000000000000D+00  .558793544769D-08  .160000000000D+02
     .936000000000D+05  .400000000000D+01
16 22 10 10  4  0  0.0 -.525966752321D-03 -.568434188608D-12  .000000000000D+00
     .520000000000D+02  .682187500000D+02  .491770484215D-08  .210392712062D+01
     .344589352608D-05  .128332534805D-01  .320374965668D-05  .515371918869D+04
     .100800000000D+06 -.266358256340D-06 -.190287609900D+01 -.210478901863D-06
     .967277387580D+00  .323062500000D+03  .734847340770D+00 -.844570894053D-08
     .416088760338D-09  .100000000000D+01  .223100000000D+04  .000000000000D+00
     .240000000000D+01  .000000000000D+00 -.102445483208D-07  .520000000000D+02
     .936000000000D+05  .400000000000D+01
31 22 10 10  4  0  0.0 -.196263659745D-03 -.136424205266D-11  .000000000000D+00
     .350000000000D+02  .514062500000D+02  .425946313802D-08 -.221680355211D+01
     .226125121117D-05  .105989860604D-01  .134352594614D-04  .515360714912D+04
     .100800000000D+06  .167638063431D-07 -.301617189999D+01 -.152736902237D-06
     .955303938529D+00  .117531250000D+03  .440420458377D+00 -.778460997454D-08
     .221794952936D-09  .100000000000D+01  .223100000000D+04  .000000000000D+00
     .240000000000D+01  .000000000000D+00 -.135041773319D-07  .350000000000D+02
     .936000000000D+05  .400000000000D+01
30 22 10 10  4  0  0.0 -.537227373570D-03  .000000000000D+00  .000000000000D+00
     .720000000000D+02  .429687500000D+02  .463805033627D-08 -.178955221938D+01
     .198371708393D-05  .594799069222D-02  .133533030748D-04  .515371191406D+04
     .100800000000D+06  .260770320892D-07 -.302563653816D+01 -.968575477600D-07
     .936280624349D+00  .106437500000D+03 -.265882016969D+01 -.802104839458D-08
     .157863718515D-09  .100000000000D+01  .223100000000D+04  .000000000000D+00
     .240000000000D+01  .000000000000D+00  .372529029846D-08  .720000000000D+02
     .936000000000D+05  .400000000000D+01
20 22 10 10  4  0  0.0  .479627400637D-03 -.306954461848D-11  .000000000000D+00
     .360000000000D+02  .685000000000D+02  .516557230968D-08  .356241223334D-01
     .354088842869D-05  .477309711277D-02  .645965337753D-05  .515366070175D+04
     .100800000000D+06  .726431608200D-07  .987634428081D+00  .372529029846D-08
     .944869739697D+00  .247593750000D+03 -.307752125388D+01 -.853071248127D-08
     .450733060555D-09  .100000000000D+01  .223100000000D+04  .000000000000D+00
     .240000000000D+01  .000000000000D+00 -.838190317154D-08  .360000000000D+02
     .936000000000D+05  .400000000000D+01
27 22 10 10  4  0  0.0  .200448092073D-03 -.602540239925D-11  .000000000000D+00
     .780000000000D+02 -.984687500000D+02  .473448292450D-08  .120139680048D+01
    -.499933958054D-05  .106435506605D-01  .572577118874D-05  .515365879631D+04
     .100800000000D+06 -.428408384323D-07 -.946346176603D+00  .217929482460D-06
     .970481521959D+00  .275187500000D+03  .685599511480D+00 -.847285292833D-08
    -.590738892360D-09  .100000000000D+01  .223100000000D+04  .000000000000D+00
     .240000000000D+01  .000000000000D+00  .139698386192D-08  .780000000000D+02
     .936000000000D+05  .400000000000D+01
